[
  {
    "object_name": "KSLV-IIDUMMY",
    "object_id": "2022-065B",
    "norad_cat_id": 52895,
    "owner": "SKOR",
    "launch_date": "2022-06-21",
    "launch_site": "NSC",
    "purpose": "null",
    "tle1": "1 52895U 22065B   23167.11013642  .00000072  00000+0  25380-4 0  9991",
    "tle2": "2 52895  98.0733 311.8112 0007673 205.2135 154.8691 14.58233107 52442",
    "type": "satellite"
  },
  {
    "object_name": "STEPCUBELAB-II",
    "object_id": "2022-065D",
    "norad_cat_id": 52897,
    "owner": "SKOR",
    "launch_date": "2022-06-21",
    "launch_site": "NSC",
    "purpose": "null",
    "tle1": "1 52897U 22065D   23167.08476190  .00001018  00000+0  22594-3 0  9994",
    "tle2": "2 52897  98.0697 311.9043 0008487 210.1468 149.9244 14.59081267 51273",
    "type": "satellite"
  },
  {
    "object_name": "RANDEV",
    "object_id": "2022-065E",
    "norad_cat_id": 52898,
    "owner": "SKOR",
    "launch_date": "2022-06-21",
    "launch_site": "NSC",
    "purpose": "null",
    "tle1": "1 52898U 22065E   23167.06615794  .00001054  00000+0  23317-3 0  9992",
    "tle2": "2 52898  98.0695 311.9248 0007740 211.9326 148.1405 14.59190070 50993",
    "type": "satellite"
  },
  {
    "object_name": "SNUGLITE-II",
    "object_id": "2022-065F",
    "norad_cat_id": 52899,
    "owner": "SKOR",
    "launch_date": "2022-06-21",
    "launch_site": "NSC",
    "purpose": "null",
    "tle1": "1 52899U 22065F   23167.12205333  .00001136  00000+0  24983-3 0  9995",
    "tle2": "2 52899  98.0690 311.9933 0007299 211.6349 148.4413 14.59304016 50709",
    "type": "satellite"
  },
  {
    "object_name": "MIMAN",
    "object_id": "2022-065G",
    "norad_cat_id": 52900,
    "owner": "SKOR",
    "launch_date": "2022-06-21",
    "launch_site": "NSC",
    "purpose": "null",
    "tle1": "1 52900U 22065G   23166.99117875  .00000726  00000+0  16494-3 0  9997",
    "tle2": "2 52900  98.0706 311.7354 0007254 205.5319 154.5523 14.58776608 50298",
    "type": "satellite"
  },
  {
    "object_name": "CMS-02(GSAT24)",
    "object_id": "2022-067A",
    "norad_cat_id": 52903,
    "owner": "IND",
    "launch_date": "2022-06-22",
    "launch_site": "FRGUI",
    "purpose": "communications",
    "tle1": "1 52903U 22067A   23167.00118817 -.00000161  00000+0  00000+0 0  9998",
    "tle2": "2 52903   0.0522 252.4666 0007910 193.9413 261.0434  1.00272515  3611",
    "type": "satellite"
  },
  {
    "object_name": "MEASAT3D",
    "object_id": "2022-067B",
    "norad_cat_id": 52904,
    "owner": "MALA",
    "launch_date": "2022-06-22",
    "launch_site": "FRGUI",
    "purpose": "communications",
    "tle1": "1 52904U 22067B   23166.71021679 -.00000237  00000+0  00000+0 0  9999",
    "tle2": "2 52904   0.0373 318.9965 0000627  68.6980 223.1931  1.00270145  3642",
    "type": "satellite"
  },
  {
    "object_name": "YAOGAN-3502A",
    "object_id": "2022-068A",
    "norad_cat_id": 52907,
    "owner": "PRC",
    "launch_date": "2022-06-23",
    "launch_site": "XICLF",
    "purpose": "null",
    "tle1": "1 52907U 22068A   23167.13643361  .00008837  00000+0  34328-3 0  9995",
    "tle2": "2 52907  34.9935 187.8767 0005866 230.7101 129.3094 15.25306578 54640",
    "type": "satellite"
  },
  {
    "object_name": "YAOGAN-3502B",
    "object_id": "2022-068B",
    "norad_cat_id": 52908,
    "owner": "PRC",
    "launch_date": "2022-06-23",
    "launch_site": "XICLF",
    "purpose": "null",
    "tle1": "1 52908U 22068B   23167.13074942  .00012155  00000+0  46657-3 0  9995",
    "tle2": "2 52908  34.9953 187.8289 0010561 289.2670  70.6903 15.25613174 54615",
    "type": "satellite"
  },
  {
    "object_name": "YAOGAN-3502C",
    "object_id": "2022-068C",
    "norad_cat_id": 52909,
    "owner": "PRC",
    "launch_date": "2022-06-23",
    "launch_site": "XICLF",
    "purpose": "null",
    "tle1": "1 52909U 22068C   23167.12120046  .00023493  00000+0  74248-3 0  9996",
    "tle2": "2 52909  34.9915 181.9535 0009814 258.0940 101.8677 15.31840324 54707",
    "type": "satellite"
  },
  {
    "object_name": "GAOFEN12-03",
    "object_id": "2022-069A",
    "norad_cat_id": 52912,
    "owner": "PRC",
    "launch_date": "2022-06-27",
    "launch_site": "JSC",
    "purpose": "weather_ers",
    "tle1": "1 52912U 22069A   23167.11484528  .00001585  00000+0  21527-3 0  9998",
    "tle2": "2 52912  97.9527  57.2251 0001243  99.6511 260.4841 14.80236772 52296",
    "type": "satellite"
  },
  {
    "object_name": "SES-22",
    "object_id": "2022-071A",
    "norad_cat_id": 52933,
    "owner": "SES",
    "launch_date": "2022-06-29",
    "launch_site": "AFETR",
    "purpose": "communications",
    "tle1": "1 52933U 22071A   23166.68607611  .00000092  00000+0  00000+0 0  9996",
    "tle2": "2 52933   0.0151  53.1047 0001000  34.1149 288.4434  1.00272556  3536",
    "type": "satellite"
  },
  {
    "object_name": "DS-EO",
    "object_id": "2022-072A",
    "norad_cat_id": 52935,
    "owner": "SING",
    "launch_date": "2022-06-30",
    "launch_site": "SRILR",
    "purpose": "null",
    "tle1": "1 52935U 22072A   23167.01383952  .00003213  00000+0  18564-3 0  9992",
    "tle2": "2 52935   9.9968  28.4593 0007285 293.0901  66.8545 15.01688488 52701",
    "type": "satellite"
  },
  {
    "object_name": "NEUSAR",
    "object_id": "2022-072C",
    "norad_cat_id": 52937,
    "owner": "SING",
    "launch_date": "2022-06-30",
    "launch_site": "SRILR",
    "purpose": "null",
    "tle1": "1 52937U 22072C   23167.01292813  .00007681  00000+0  49308-3 0  9992",
    "tle2": "2 52937   9.9887  27.2643 0003063 280.4292  79.5577 15.03596653 52743",
    "type": "satellite"
  },
  {
    "object_name": "WFOV(USA332)",
    "object_id": "2022-073A",
    "norad_cat_id": 52940,
    "owner": "US",
    "launch_date": "2022-07-01",
    "launch_site": "AFETR",
    "purpose": "communications",
    "tle1": "1 52940U 22073A   23166.78035458 -.00000359  00000+0  00000+0 0  9998",
    "tle2": "2 52940   0.8784  93.6606 0002936  36.9516 173.3882  1.00272054  3364",
    "type": "satellite"
  },
  {
    "object_name": "RECURVE",
    "object_id": "2022-074A",
    "norad_cat_id": 52944,
    "owner": "US",
    "launch_date": "2022-07-02",
    "launch_site": "WRAS",
    "purpose": "null",
    "tle1": "1 52944U 22074A   23166.62710671  .00017380  00000+0  53029-3 0  9997",
    "tle2": "2 52944  45.0127  17.2848 0006309 216.1064 143.9396 15.33740458 53253",
    "type": "satellite"
  },
  {
    "object_name": "NACHOS-2",
    "object_id": "2022-074B",
    "norad_cat_id": 52945,
    "owner": "US",
    "launch_date": "2022-07-02",
    "launch_site": "WRAS",
    "purpose": "null",
    "tle1": "1 52945U 22074B   23166.94335757  .00021052  00000+0  62240-3 0  9997",
    "tle2": "2 52945  44.9935  14.1520 0006802 197.6290 162.4360 15.34617640 53315",
    "type": "satellite"
  },
  {
    "object_name": "SLINGSHOT1",
    "object_id": "2022-074D",
    "norad_cat_id": 52947,
    "owner": "US",
    "launch_date": "2022-07-02",
    "launch_site": "WRAS",
    "purpose": "null",
    "tle1": "1 52947U 22074D   23166.62259904  .00017184  00000+0  52974-3 0  9997",
    "tle2": "2 52947  44.9921  15.9133 0003531 222.4692 137.5920 15.33429662 53263",
    "type": "satellite"
  },
  {
    "object_name": "GPX23U",
    "object_id": "2022-074E",
    "norad_cat_id": 52948,
    "owner": "US",
    "launch_date": "2022-07-02",
    "launch_site": "WRAS",
    "purpose": "null",
    "tle1": "1 52948U 22074E   23166.76278199  .00023956  00000+0  66083-3 0  9990",
    "tle2": "2 52948  45.0007  11.3468 0004781 226.0887 133.9605 15.36729004 53330",
    "type": "satellite"
  },
  {
    "object_name": "MISR-B-1",
    "object_id": "2022-074F",
    "norad_cat_id": 52949,
    "owner": "US",
    "launch_date": "2022-07-02",
    "launch_site": "WRAS",
    "purpose": "null",
    "tle1": "1 52949U 22074F   23166.84627635  .00078478  00000+0  13206-2 0  9990",
    "tle2": "2 52949  44.9881   0.8088 0014824 236.1570 123.7911 15.50725211 53463",
    "type": "satellite"
  },
  {
    "object_name": "CTIM",
    "object_id": "2022-074G",
    "norad_cat_id": 52950,
    "owner": "US",
    "launch_date": "2022-07-02",
    "launch_site": "WRAS",
    "purpose": "null",
    "tle1": "1 52950U 22074G   23166.96218430  .00052374  00000+0  11591-2 0  9996",
    "tle2": "2 52950  44.9987   6.1518 0014062 225.2529 134.7216 15.42989098 53417",
    "type": "satellite"
  },
  {
    "object_name": "GUNSMOKE-L",
    "object_id": "2022-074H",
    "norad_cat_id": 52951,
    "owner": "US",
    "launch_date": "2022-07-02",
    "launch_site": "WRAS",
    "purpose": "null",
    "tle1": "1 52951U 22074H   23166.68181830  .00026722  00000+0  65577-3 0  9991",
    "tle2": "2 52951  44.9696   9.1326 0008903 220.3550 139.6677 15.40238208 53347",
    "type": "satellite"
  },
  {
    "object_name": "COSMOS2557[GLONASS-K]",
    "object_id": "2022-075A",
    "norad_cat_id": 52984,
    "owner": "CIS",
    "launch_date": "2022-07-07",
    "launch_site": "PLMSC",
    "purpose": "navigation",
    "tle1": "1 52984U 22075A   23166.03813749 -.00000068  00000+0  00000+0 0  9990",
    "tle2": "2 52984  64.7796 352.9069 0010451 284.8317  75.0793  2.13102091  7318",
    "type": "satellite"
  },
  {
    "object_name": "STARLINK-4260",
    "object_id": "2022-076A",
    "norad_cat_id": 52986,
    "owner": "US",
    "launch_date": "2022-07-07",
    "launch_site": "AFETR",
    "purpose": "communications",
    "tle1": "1 52986U 22076A   23166.53982725  .00000619  00000+0  56977-4 0  9999",
    "tle2": "2 52986  53.2175 254.9908 0001177 102.9423 257.1701 15.08837775 52628",
    "type": "satellite"
  },
  {
    "object_name": "STARLINK-4259",
    "object_id": "2022-076B",
    "norad_cat_id": 52987,
    "owner": "US",
    "launch_date": "2022-07-07",
    "launch_site": "AFETR",
    "purpose": "communications",
    "tle1": "1 52987U 22076B   23166.71186918  .00000910  00000+0  75251-4 0  9990",
    "tle2": "2 52987  53.2168 264.2189 0001024  95.9988 264.1121 15.08836201 52047",
    "type": "satellite"
  }
]